[{"OBJECT_NAME":"POPACS 2","OBJECT_ID":"2013-055E","EPOCH":"2026-03-09T12:13:44.500512","MEAN_MOTION":14.87802959,"ECCENTRICITY":0.04307455,"INCLINATION":80.9893,"RA_OF_ASC_NODE":258.0384,"ARG_OF_PERICENTER":153.4128,"MEAN_ANOMALY":208.9906,"EPHEMERIS_TYPE":0,"CLASSIFICATION_TYPE":"U","NORAD_CAT_ID":39269,"ELEMENT_SET_NO":999,"REV_AT_EPOCH":64837,"BSTAR":0.00051934698,"MEAN_MOTION_DOT":0.00029878,"MEAN_MOTION_DDOT":0},{"OBJECT_NAME":"STARLINK-6081","OBJECT_ID":"2023-046R","EPOCH":"2026-03-08T15:14:43.084896","MEAN_MOTION":15.02697277,"ECCENTRICITY":5.782e-5,"INCLINATION":43.0031,"RA_OF_ASC_NODE":164.6545,"ARG_OF_PERICENTER":245.9294,"MEAN_ANOMALY":114.1488,"EPHEMERIS_TYPE":0,"CLASSIFICATION_TYPE":"U","NORAD_CAT_ID":56108,"ELEMENT_SET_NO":999,"REV_AT_EPOCH":16190,"BSTAR":0.0013507201,"MEAN_MOTION_DOT":0.00018168,"MEAN_MOTION_DDOT":0}]
